start=new Date('2023-03-25T00:00:00.000Z').valueOf();
sats=[{"COUNTRY_CODE":"US","RCS_SIZE":"LARGE","SEMIMAJOR_AXIS":"6797.733","OBJECT_ID":"2023-013Z","OBJECT_TYPE":"PAYLOAD","ECCENTRICITY":"0.00015490","EPOCH":"2023-03-24T22:00:01.999584","APOAPSIS":"420.651","RA_OF_ASC_NODE":"57.5916","FILE":"3870109","REV_AT_EPOCH":"130","MEAN_MOTION_DDOT":"0.0000000000000","NORAD_CAT_ID":"55354","REF_FRAME":"TEME","CLASSIFICATION_TYPE":"U","CENTER_NAME":"EARTH","TLE_LINE1":"1 55354U 23013Z   23083.91668981 -.00441125  00000-0 -83985-2 0  9999","MEAN_ELEMENT_THEORY":"SGP4","ELEMENT_SET_NO":"999","EPHEMERIS_TYPE":"0","MEAN_MOTION":"15.49018423","BSTAR":"-0.00839850000000","GP_ID":"228826588","INCLINATION":"43.0002","OBJECT_NAME":"STARLINK-5649","SITE":"AFETR","LAUNCH_DATE":"2023-01-26","ARG_OF_PERICENTER":"240.0776","DECAY_DATE":null,"PERIOD":"92.962","MEAN_ANOMALY":"301.1811","TLE_LINE2":"2 55354  43.0002  57.5916 0001549 240.0776 301.1811 15.49018423  1307","MEAN_MOTION_DOT":"-0.00441125","PERIAPSIS":"418.545","TIME_SYSTEM":"UTC"},{"CLASSIFICATION_TYPE":"U","CENTER_NAME":"EARTH","TLE_LINE1":"1 55355U 23013AA  23083.91668981 -.00027845  00000-0 -49960-3 0  9995","ELEMENT_SET_NO":"999","MEAN_ELEMENT_THEORY":"SGP4","EPHEMERIS_TYPE":"0","MEAN_MOTION":"15.48891212","COUNTRY_CODE":"US","RCS_SIZE":"LARGE","SEMIMAJOR_AXIS":"6798.105","OBJECT_ID":"2023-013AA","OBJECT_TYPE":"PAYLOAD","ECCENTRICITY":"0.00011250","EPOCH":"2023-03-24T22:00:01.999584","RA_OF_ASC_NODE":"57.5821","APOAPSIS":"420.735","FILE":"3870109","REV_AT_EPOCH":"130","MEAN_MOTION_DDOT":"0.0000000000000","NORAD_CAT_ID":"55355","REF_FRAME":"TEME","PERIOD":"92.970","MEAN_ANOMALY":"288.8661","TLE_LINE2":"2 55355  43.0003  57.5821 0001125 256.2149 288.8661 15.48891212  1305","PERIAPSIS":"419.206","MEAN_MOTION_DOT":"-0.00027845","TIME_SYSTEM":"UTC","BSTAR":"-0.00049960000000","INCLINATION":"43.0003","GP_ID":"228826333","OBJECT_NAME":"STARLINK-5647","SITE":"AFETR","LAUNCH_DATE":"2023-01-26","DECAY_DATE":null,"ARG_OF_PERICENTER":"256.2149"},{"CENTER_NAME":"EARTH","CLASSIFICATION_TYPE":"U","EPHEMERIS_TYPE":"0","MEAN_MOTION":"15.48850841","TLE_LINE1":"1 55357U 23013AC  23083.91668981  .00065517  00000-0  11833-2 0  9990","MEAN_ELEMENT_THEORY":"SGP4","ELEMENT_SET_NO":"999","OBJECT_ID":"2023-013AC","OBJECT_TYPE":"PAYLOAD","ECCENTRICITY":"0.00013870","EPOCH":"2023-03-24T22:00:01.999584","COUNTRY_CODE":"US","RCS_SIZE":"LARGE","SEMIMAJOR_AXIS":"6798.224","MEAN_MOTION_DDOT":"0.0000000000000","REV_AT_EPOCH":"130","NORAD_CAT_ID":"55357","REF_FRAME":"TEME","APOAPSIS":"421.032","RA_OF_ASC_NODE":"57.5787","FILE":"3870109","MEAN_ANOMALY":"281.3801","TLE_LINE2":"2 55357  43.0000  57.5787 0001387 264.9868 281.3801 15.48850841  1306","MEAN_MOTION_DOT":"0.00065517","PERIAPSIS":"419.146","PERIOD":"92.972","TIME_SYSTEM":"UTC","SITE":"AFETR","LAUNCH_DATE":"2023-01-26","BSTAR":"0.00118330000000","GP_ID":"228825087","INCLINATION":"43.0000","OBJECT_NAME":"STARLINK-5651","ARG_OF_PERICENTER":"264.9868","DECAY_DATE":null},{"CLASSIFICATION_TYPE":"U","CENTER_NAME":"EARTH","TLE_LINE1":"1 55358U 23013AD  23083.91668981 -.00051032  00000-0 -92331-3 0  9993","ELEMENT_SET_NO":"999","MEAN_ELEMENT_THEORY":"SGP4","EPHEMERIS_TYPE":"0","MEAN_MOTION":"15.48895288","COUNTRY_CODE":"US","SEMIMAJOR_AXIS":"6798.094","RCS_SIZE":"LARGE","OBJECT_TYPE":"PAYLOAD","OBJECT_ID":"2023-013AD","EPOCH":"2023-03-24T22:00:01.999584","ECCENTRICITY":"0.00010580","RA_OF_ASC_NODE":"57.5853","APOAPSIS":"420.678","FILE":"3870109","REV_AT_EPOCH":"130","MEAN_MOTION_DDOT":"0.0000000000000","REF_FRAME":"TEME","NORAD_CAT_ID":"55358","PERIOD":"92.969","MEAN_ANOMALY":"283.4766","PERIAPSIS":"419.239","MEAN_MOTION_DOT":"-0.00051032","TLE_LINE2":"2 55358  43.0002  57.5853 0001058 260.3268 283.4766 15.48895288  1309","TIME_SYSTEM":"UTC","BSTAR":"-0.00092331000000","INCLINATION":"43.0002","GP_ID":"228825837","OBJECT_NAME":"STARLINK-5622","LAUNCH_DATE":"2023-01-26","SITE":"AFETR","DECAY_DATE":null,"ARG_OF_PERICENTER":"260.3268"},{"TIME_SYSTEM":"UTC","PERIOD":"92.971","MEAN_ANOMALY":"291.2781","PERIAPSIS":"419.098","MEAN_MOTION_DOT":"0.00070786","TLE_LINE2":"2 55359  43.0002  57.5756 0001398 256.3589 291.2781 15.48864597  1303","DECAY_DATE":null,"ARG_OF_PERICENTER":"256.3589","BSTAR":"0.00127650000000","OBJECT_NAME":"STARLINK-5641","GP_ID":"228826089","INCLINATION":"43.0002","LAUNCH_DATE":"2023-01-26","SITE":"AFETR","TLE_LINE1":"1 55359U 23013AE  23083.91668981  .00070786  00000-0  12765-2 0  9991","MEAN_ELEMENT_THEORY":"SGP4","ELEMENT_SET_NO":"999","MEAN_MOTION":"15.48864597","EPHEMERIS_TYPE":"0","CLASSIFICATION_TYPE":"U","CENTER_NAME":"EARTH","RA_OF_ASC_NODE":"57.5756","APOAPSIS":"420.999","FILE":"3870109","REV_AT_EPOCH":"130","MEAN_MOTION_DDOT":"0.0000000000000","REF_FRAME":"TEME","NORAD_CAT_ID":"55359","COUNTRY_CODE":"US","SEMIMAJOR_AXIS":"6798.183","RCS_SIZE":"LARGE","OBJECT_TYPE":"PAYLOAD","OBJECT_ID":"2023-013AE","EPOCH":"2023-03-24T22:00:01.999584","ECCENTRICITY":"0.00013980"},{"CLASSIFICATION_TYPE":"U","CENTER_NAME":"EARTH","TLE_LINE1":"1 55360U 23013AF  23083.91668981 -.00786828  00000-0 -58809-1 0  9994","MEAN_ELEMENT_THEORY":"SGP4","ELEMENT_SET_NO":"999","MEAN_MOTION":"15.04707762","EPHEMERIS_TYPE":"0","COUNTRY_CODE":"US","SEMIMAJOR_AXIS":"6930.540","RCS_SIZE":"LARGE","OBJECT_TYPE":"PAYLOAD","OBJECT_ID":"2023-013AF","EPOCH":"2023-03-24T22:00:01.999584","ECCENTRICITY":"0.00016060","APOAPSIS":"553.518","RA_OF_ASC_NODE":"65.3942","FILE":"3870109","MEAN_MOTION_DDOT":"0.0000000000000","REV_AT_EPOCH":"130","REF_FRAME":"TEME","NORAD_CAT_ID":"55360","PERIOD":"95.700","MEAN_ANOMALY":"318.1869","MEAN_MOTION_DOT":"-0.00786828","PERIAPSIS":"551.292","TLE_LINE2":"2 55360  43.0013  65.3942 0001606 249.0384 318.1869 15.04707762  1303","TIME_SYSTEM":"UTC","BSTAR":"-0.05880900000000","GP_ID":"228826833","INCLINATION":"43.0013","OBJECT_NAME":"STARLINK-5664","LAUNCH_DATE":"2023-01-26","SITE":"AFETR","DECAY_DATE":null,"ARG_OF_PERICENTER":"249.0384"},{"DECAY_DATE":null,"ARG_OF_PERICENTER":"289.9986","GP_ID":"228793215","OBJECT_NAME":"STARLINK-5665","INCLINATION":"43.0005","BSTAR":"0.00019073000000","LAUNCH_DATE":"2023-01-26","SITE":"AFETR","TIME_SYSTEM":"UTC","PERIOD":"91.638","MEAN_MOTION_DOT":"0.00024677","PERIAPSIS":"353.927","TLE_LINE2":"2 55361  43.0005  59.2556 0001449 289.9986  70.0726 15.71397950  9014","MEAN_ANOMALY":"70.0726","FILE":"3869846","APOAPSIS":"355.878","RA_OF_ASC_NODE":"59.2556","REF_FRAME":"TEME","NORAD_CAT_ID":"55361","REV_AT_EPOCH":"901","MEAN_MOTION_DDOT":"0.0000000000000","RCS_SIZE":"LARGE","SEMIMAJOR_AXIS":"6733.038","COUNTRY_CODE":"US","EPOCH":"2023-03-24T09:34:09.971328","ECCENTRICITY":"0.00014490","OBJECT_TYPE":"PAYLOAD","OBJECT_ID":"2023-013AG","MEAN_ELEMENT_THEORY":"SGP4","ELEMENT_SET_NO":"999","TLE_LINE1":"1 55361U 23013AG  23083.39872652  .00024677  00000-0  19073-3 0  9996","EPHEMERIS_TYPE":"0","MEAN_MOTION":"15.71397950","CLASSIFICATION_TYPE":"U","CENTER_NAME":"EARTH"},{"CLASSIFICATION_TYPE":"U","CENTER_NAME":"EARTH","ELEMENT_SET_NO":"999","MEAN_ELEMENT_THEORY":"SGP4","TLE_LINE1":"1 55362U 23013AH  23083.39881655  .00002392  00000-0  21656-4 0  9991","MEAN_MOTION":"15.71384376","EPHEMERIS_TYPE":"0","RCS_SIZE":"LARGE","SEMIMAJOR_AXIS":"6733.077","COUNTRY_CODE":"US","EPOCH":"2023-03-24T09:34:17.749920","ECCENTRICITY":"0.00013620","OBJECT_TYPE":"PAYLOAD","OBJECT_ID":"2023-013AH","FILE":"3869846","APOAPSIS":"355.859","RA_OF_ASC_NODE":"59.2575","REF_FRAME":"TEME","NORAD_CAT_ID":"55362","REV_AT_EPOCH":"901","MEAN_MOTION_DDOT":"0.0000000000000","PERIOD":"91.639","PERIAPSIS":"354.025","MEAN_MOTION_DOT":"0.00002392","TLE_LINE2":"2 55362  43.0031  59.2575 0001362 274.7477  85.3235 15.71384376  9018","MEAN_ANOMALY":"85.3235","TIME_SYSTEM":"UTC","INCLINATION":"43.0031","GP_ID":"228793465","OBJECT_NAME":"STARLINK-5574","BSTAR":"0.00002165600000","LAUNCH_DATE":"2023-01-26","SITE":"AFETR","DECAY_DATE":null,"ARG_OF_PERICENTER":"274.7477"},{"MEAN_ANOMALY":"17.9541","TLE_LINE2":"2 55363  43.0012  66.0864 0001739 259.7004  17.9541 15.04469609  1306","MEAN_MOTION_DOT":"0.00063167","PERIAPSIS":"551.931","PERIOD":"95.715","TIME_SYSTEM":"UTC","SITE":"AFETR","LAUNCH_DATE":"2023-01-26","BSTAR":"0.00441590000000","INCLINATION":"43.0012","GP_ID":"228826589","OBJECT_NAME":"STARLINK-5648","ARG_OF_PERICENTER":"259.7004","DECAY_DATE":null,"CENTER_NAME":"EARTH","CLASSIFICATION_TYPE":"U","MEAN_MOTION":"15.04469609","EPHEMERIS_TYPE":"0","TLE_LINE1":"1 55363U 23013AJ  23083.91668981  .00063167  00000-0  44159-2 0  9993","MEAN_ELEMENT_THEORY":"SGP4","ELEMENT_SET_NO":"999","OBJECT_ID":"2023-013AJ","OBJECT_TYPE":"PAYLOAD","ECCENTRICITY":"0.00017390","EPOCH":"2023-03-24T22:00:01.999584","COUNTRY_CODE":"US","SEMIMAJOR_AXIS":"6931.271","RCS_SIZE":"LARGE","MEAN_MOTION_DDOT":"0.0000000000000","REV_AT_EPOCH":"130","NORAD_CAT_ID":"55363","REF_FRAME":"TEME","APOAPSIS":"554.342","RA_OF_ASC_NODE":"66.0864","FILE":"3870109"},{"CENTER_NAME":"EARTH","CLASSIFICATION_TYPE":"U","MEAN_MOTION":"15.48851438","EPHEMERIS_TYPE":"0","TLE_LINE1":"1 55364U 23013AK  23083.91668981  .00061934  00000-0  11194-2 0  9997","ELEMENT_SET_NO":"999","MEAN_ELEMENT_THEORY":"SGP4","OBJECT_TYPE":"PAYLOAD","OBJECT_ID":"2023-013AK","EPOCH":"2023-03-24T22:00:01.999584","ECCENTRICITY":"0.00018040","COUNTRY_CODE":"US","SEMIMAJOR_AXIS":"6798.222","RCS_SIZE":"LARGE","MEAN_MOTION_DDOT":"0.0000000000000","REV_AT_EPOCH":"130","REF_FRAME":"TEME","NORAD_CAT_ID":"55364","APOAPSIS":"421.313","RA_OF_ASC_NODE":"57.5726","FILE":"3870109","MEAN_ANOMALY":"297.5041","PERIAPSIS":"418.860","MEAN_MOTION_DOT":"0.00061934","TLE_LINE2":"2 55364  43.0001  57.5726 0001804 251.4157 297.5041 15.48851438  1302","PERIOD":"92.972","TIME_SYSTEM":"UTC","LAUNCH_DATE":"2023-01-26","SITE":"AFETR","BSTAR":"0.00111940000000","GP_ID":"228826334","OBJECT_NAME":"STARLINK-5627","INCLINATION":"43.0001","ARG_OF_PERICENTER":"251.4157","DECAY_DATE":null}];
